NORAD_CAT_ID,OBJECT_NAME,OBJECT_TYPE,EPOCH,MEAN_MOTION,ECCENTRICITY,INCLINATION,RA_OF_ASC_NODE,ARG_OF_PERICENTER,MEAN_ANOMALY,BSTAR,MEAN_MOTION_DOT,MEAN_MOTION_DDOT,TLE_LINE0,TLE_LINE1,TLE_LINE2,SEMIMAJOR_AXIS,PERIOD,APOGEE,PERIGEE,DECAYED
53547.0,STARLINK-4474,PAYLOAD,2023-06-02 16:04:42,15.08833248,0.0001165,53.2176,282.7685,93.6694,266.4431,-4.3483e-05,-9.8e-06,0.0,0 STARLINK-4474,1 53547U 22101W   23153.66994035 -.00000980  00000-0 -43483-4 0  9991,2 53547  53.2176 282.7685 0001165  93.6694 266.4431 15.08833248 43676,6917.901,95.438,540.572,538.96,0.0
53547.0,STARLINK-4474,PAYLOAD,2023-06-03 14:20:06,15.08841072,0.0001077,53.2175,278.6049,96.578,263.5335,2.0009e-05,3.1e-07,0.0,0 STARLINK-4474,1 53547U 22101W   23154.59729710  .00000031  00000-0  20009-4 0  9994,2 53547  53.2175 278.6049 0001077  96.5780 263.5335 15.08841072 44488,6917.877,95.437,540.487,538.997,0.0
53547.0,STARLINK-4474,PAYLOAD,2023-06-03 17:30:52,15.08845941,0.0001008,53.2169,278.0089,88.6089,271.5018,5.3096e-05,5.57e-06,0.0,0 STARLINK-4474,1 53547U 22101W   23154.72977310  .00000557  00000-0  53096-4 0  9995,2 53547  53.2169 278.0089 0001008  88.6089 271.5018 15.08845941 43831,6917.862,95.437,540.425,539.03,0.0
53547.0,STARLINK-4474,PAYLOAD,2023-06-04 07:49:21,15.0883513,0.0001097,53.2168,275.3326,80.1131,279.9985,0.0001504,2.106e-05,0.0,0 STARLINK-4474,1 53547U 22101W   23155.32593898  .00002106  00000-0  15040-3 0  9995,2 53547  53.2168 275.3326 0001097  80.1131 279.9985 15.08835130 43921,6917.895,95.438,540.519,539.001,0.0
53547.0,STARLINK-4474,PAYLOAD,2023-06-04 14:10:53,15.08841336,9.93e-05,53.2161,274.143,80.6206,279.4899,0.00014877,2.081e-05,0.0,0 STARLINK-4474,1 53547U 22101W   23155.59089574  .00002081  00000-0  14877-3 0  9994,2 53547  53.2161 274.1430 0000993  80.6206 279.4899 15.08841336 44632,6917.876,95.437,540.428,539.054,0.0
53547.0,STARLINK-4474,PAYLOAD,2023-06-04 15:46:16,15.08843629,0.0001017,53.2162,273.8455,81.153,278.9577,0.00016995,2.418e-05,0.0,0 STARLINK-4474,1 53547U 22101W   23155.65713401  .00002418  00000-0  16995-3 0  9991,2 53547  53.2162 273.8455 0001017  81.1530 278.9577 15.08843629 43970,6917.869,95.437,540.438,539.031,0.0
53547.0,STARLINK-4474,PAYLOAD,2023-06-05 10:50:54,15.08839494,0.0001059,53.2159,270.2771,82.2389,277.8723,6.2013e-05,6.99e-06,0.0,0 STARLINK-4474,1 53547U 22101W   23156.45201857  .00000699  00000-0  62013-4 0  9999,2 53547  53.2159 270.2771 0001059  82.2389 277.8723 15.08839494 44098,6917.882,95.438,540.48,539.014,0.0
53547.0,STARLINK-4474,PAYLOAD,2023-06-05 14:01:40,15.08842797,9.88e-05,53.2158,269.6813,93.3326,266.7779,0.00010084,1.318e-05,0.0,0 STARLINK-4474,1 53547U 22101W   23156.58449518  .00001318  00000-0  10084-3 0  9990,2 53547  53.2158 269.6813 0000988  93.3326 266.7779 15.08842797 44784,6917.872,95.437,540.42,539.053,0.0
53547.0,STARLINK-4474,PAYLOAD,2023-06-05 17:12:26,15.08846472,9.59e-05,53.216,269.086,100.3581,259.7519,7.239e-05,8.65e-06,0.0,0 STARLINK-4474,1 53547U 22101W   23156.71697257  .00000865  00000-0  72390-4 0  9995,2 53547  53.2160 269.0860 0000959 100.3581 259.7519 15.08846472 44804,6917.861,95.437,540.389,539.062,0.0
53547.0,STARLINK-4474,PAYLOAD,2023-06-06 07:30:55,15.0883632,8.7e-05,53.2162,266.4095,102.683,257.4259,5.3159e-05,5.58e-06,0.0,0 STARLINK-4474,1 53547U 22101W   23157.31313900  .00000558  00000-0  53159-4 0  9993,2 53547  53.2162 266.4095 0000870 102.6830 257.4259 15.08836320 44224,6917.892,95.438,540.358,539.155,0.0
53547.0,STARLINK-4474,PAYLOAD,2023-06-06 12:17:04,15.08838858,9.42e-05,53.2161,265.5175,101.7104,258.3994,6.0119e-05,6.69e-06,0.0,0 STARLINK-4474,1 53547U 22101W   23157.51185712  .00000669  00000-0  60119-4 0  9990,2 53547  53.2161 265.5175 0000942 101.7104 258.3994 15.08838858 44927,6917.884,95.438,540.401,539.097,0.0
53547.0,STARLINK-4474,PAYLOAD,2023-06-06 17:03:13,15.08844345,0.0001043,53.2158,264.625,112.5395,247.5708,2.127e-05,5.1e-07,0.0,0 STARLINK-4474,1 53547U 22101W   23157.71057383  .00000051  00000-0  21270-4 0  9994,2 53547  53.2158 264.6250 0001043 112.5395 247.5708 15.08844345 44282,6917.867,95.437,540.454,539.011,0.0
53547.0,STARLINK-4474,PAYLOAD,2023-06-07 07:21:42,15.08836181,9.79e-05,53.2155,261.951,89.3624,270.7481,3.8997e-05,3.33e-06,0.0,0 STARLINK-4474,1 53547U 22101W   23158.30673976  .00000333  00000-0  38997-4 0  9999,2 53547  53.2155 261.9510 0000979  89.3624 270.7481 15.08836181 44376,6917.892,95.438,540.434,539.08,0.0
53547.0,STARLINK-4474,PAYLOAD,2023-06-07 16:54:00,15.0884005,9.48e-05,53.2155,260.1667,85.7963,274.3138,5.7055e-05,6.2e-06,0.0,0 STARLINK-4474,1 53547U 22101W   23158.70417724  .00000620  00000-0  57055-4 0  9995,2 53547  53.2155 260.1667 0000948  85.7963 274.3138 15.08840050 45103,6917.88,95.438,540.401,539.089,0.0
53547.0,STARLINK-4474,PAYLOAD,2023-06-08 11:58:38,15.08838287,0.0001069,53.2151,256.5977,92.0987,268.0128,7.207e-05,8.59e-06,0.0,0 STARLINK-4474,1 53547U 22101W   23159.49905953  .00000859  00000-0  72070-4 0  9996,2 53547  53.2151 256.5977 0001069  92.0987 268.0128 15.08838287 45225,6917.886,95.438,540.49,539.011,0.0
53547.0,STARLINK-4474,PAYLOAD,2023-06-09 13:24:49,15.08839087,0.0001157,53.2163,251.8399,96.5571,263.5553,6.7784e-05,7.91e-06,0.0,0 STARLINK-4474,1 53547U 22101W   23160.55890054  .00000791  00000-0  67784-4 0  9991,2 53547  53.2163 251.8399 0001157  96.5571 263.5553 15.08839087 45388,6917.883,95.438,540.549,538.948,0.0
53547.0,STARLINK-4474,PAYLOAD,2023-06-09 16:35:35,15.08841898,0.0001086,53.2162,251.2452,94.993,265.1186,7.1425e-05,8.49e-06,0.0,0 STARLINK-4474,1 53547U 22101W   23160.69137864  .00000849  00000-0  71425-4 0  9990,2 53547  53.2162 251.2452 0001086  94.9930 265.1186 15.08841898 44734,6917.875,95.437,540.491,538.988,0.0
53547.0,STARLINK-4474,PAYLOAD,2023-06-10 06:54:04,15.08832324,0.0001191,53.2168,248.5692,84.5147,275.5981,-3.2533e-05,-8.05e-06,0.0,0 STARLINK-4474,1 53547U 22101W   23161.28754990 -.00000805  00000-0 -32533-4 0  9992,2 53547  53.2168 248.5692 0001191  84.5147 275.5981 15.08832324 44829,6917.904,95.438,540.593,538.945,0.0
53547.0,STARLINK-4474,PAYLOAD,2023-06-10 13:15:36,15.08835264,0.0001137,53.2173,247.3799,81.4358,278.6763,-9.2335e-07,-3.02e-06,0.0,0 STARLINK-4474,1 53547U 22101W   23161.55250779 -.00000302  00000-0 -92335-6 0  9998,2 53547  53.2173 247.3799 0001137  81.4358 278.6763 15.08835264 45537,6917.895,95.438,540.546,538.973,0.0
53547.0,STARLINK-4474,PAYLOAD,2023-06-10 22:47:55,15.08836731,0.0001071,53.2175,245.5964,92.6749,267.4366,4.6407e-05,4.51e-06,0.0,0 STARLINK-4474,1 53547U 22101W   23161.94994602  .00000451  00000-0  46407-4 0  9991,2 53547  53.2175 245.5964 0001071  92.6749 267.4366 15.08836731 44925,6917.89,95.438,540.496,539.014,0.0
53547.0,STARLINK-4474,PAYLOAD,2023-06-11 11:30:59,15.0884559,0.000126,53.217,243.217,104.6875,255.4257,0.00011394,1.526e-05,0.0,0 STARLINK-4474,1 53547U 22101W   23162.47985842  .00001526  00000-0  11394-3 0  9996,2 53547  53.2170 243.2170 0001260 104.6875 255.4257 15.08845590 45670,6917.863,95.437,540.6,538.857,0.0
53547.0,STARLINK-4474,PAYLOAD,2023-06-11 14:41:46,15.08846541,0.0001124,53.2166,242.6221,76.5817,283.53,9.4594e-05,1.218e-05,0.0,0 STARLINK-4474,1 53547U 22101W   23162.61233873  .00001218  00000-0  94594-4 0  9994,2 53547  53.2166 242.6221 0001124  76.5817 283.5300 15.08846541 45024,6917.86,95.437,540.503,538.948,0.0
53547.0,STARLINK-4474,PAYLOAD,2023-06-12 11:21:47,15.08829017,0.0001078,53.2159,238.7558,77.4346,282.6766,0.000157,2.211e-05,0.0,0 STARLINK-4474,1 53547U 22101W   23163.47346906  .00002211  00000-0  15700-3 0  9996,2 53547  53.2159 238.7558 0001078  77.4346 282.6766 15.08829017 45823,6917.914,95.438,540.525,539.033,0.0
53547.0,STARLINK-4474,PAYLOAD,2023-06-12 22:29:29,15.08840589,0.0001026,53.2155,236.6745,78.6155,281.4952,6.4646e-05,7.41e-06,0.0,0 STARLINK-4474,1 53547U 22101W   23163.93714390  .00000741  00000-0  64646-4 0  9993,2 53547  53.2155 236.6745 0001026  78.6155 281.4952 15.08840589 45223,6917.879,95.438,540.453,539.034,0.0
53547.0,STARLINK-4474,PAYLOAD,2023-06-13 04:51:02,15.08838539,0.0001116,53.2158,235.4857,79.9197,280.1921,1.7736e-05,-6e-08,0.0,0 STARLINK-4474,1 53547U 22101W   23164.20210687 -.00000006  00000-0  17736-4 0  9997,2 53547  53.2158 235.4857 0001116  79.9197 280.1921 15.08838539 45939,6917.885,95.438,540.522,538.978,0.0
53547.0,STARLINK-4474,PAYLOAD,2023-06-13 14:23:20,15.08841884,0.000116,53.2159,233.7012,83.3707,276.7417,1.0186e-05,-1.26e-06,0.0,0 STARLINK-4474,1 53547U 22101W   23164.59954471 -.00000126  00000-0  10186-4 0  9990,2 53547  53.2159 233.7012 0001160  83.3707 276.7417 15.08841884 45993,6917.875,95.437,540.542,538.937,0.0
53547.0,STARLINK-4474,PAYLOAD,2023-06-14 04:41:48,15.08838664,0.0001204,53.2158,231.0239,91.5377,268.5753,5.9287e-05,6.56e-06,0.0,0 STARLINK-4474,1 53547U 22101W   23165.19570489  .00000656  00000-0  59287-4 0  9992,2 53547  53.2158 231.0239 0001204  91.5377 268.5753 15.08838664 45418,6917.884,95.438,540.582,538.917,0.0
53547.0,STARLINK-4474,PAYLOAD,2023-06-14 14:14:07,15.088415,0.0001211,53.2156,229.2397,90.8208,269.2923,7.7094e-05,9.39e-06,0.0,0 STARLINK-4474,1 53547U 22101W   23165.59314240  .00000939  00000-0  77094-4 0  9997,2 53547  53.2156 229.2397 0001211  90.8208 269.2923 15.08841500 46144,6917.876,95.437,540.579,538.903,0.0
53547.0,STARLINK-4474,PAYLOAD,2023-06-15 09:18:45,15.08823692,0.0001061,53.2161,225.6709,107.2851,252.8257,0.0002098,3.051e-05,0.0,0 STARLINK-4474,1 53547U 22101W   23166.38803124  .00003051  00000-0  20980-3 0  9998,2 53547  53.2161 225.6709 0001061 107.2851 252.8257 15.08823692 45595,6917.93,95.439,540.529,539.061,0.0
53547.0,STARLINK-4474,PAYLOAD,2023-06-15 10:54:08,15.08836286,0.0001132,53.2159,225.3737,103.8002,256.3116,3.7377e-05,3.07e-06,0.0,0 STARLINK-4474,1 53547U 22101W   23166.45426781  .00000307  00000-0  37377-4 0  9996,2 53547  53.2159 225.3737 0001132 103.8002 256.3116 15.08836286 46271,6917.892,95.438,540.54,538.974,0.0
